<?xml version="1.0" encoding="UTF-8"?>
<ndm xmlns:xsi="http://www.w3.org/2001/XMLSchema-instance" xsi:noNamespaceSchemaLocation="https://sanaregistry.org/r/ndmxml_unqualified/ndmxml-2.0.0-master-2.0.xsd">
<omm id="CCSDS_OMM_VERS" version="2.0">
<header><CREATION_DATE/><ORIGINATOR/></header><body><segment><metadata><OBJECT_NAME>ONEWEB-0697</OBJECT_NAME><OBJECT_ID>2024-188K</OBJECT_ID><CENTER_NAME>EARTH</CENTER_NAME><REF_FRAME>TEME</REF_FRAME><TIME_SYSTEM>UTC</TIME_SYSTEM><MEAN_ELEMENT_THEORY>SGP4</MEAN_ELEMENT_THEORY></metadata><data><meanElements><EPOCH>2025-02-08T14:00:01.000224</EPOCH><MEAN_MOTION>14.28044596</MEAN_MOTION><ECCENTRICITY>.0001105</ECCENTRICITY><INCLINATION>86.9254</INCLINATION><RA_OF_ASC_NODE>124.0098</RA_OF_ASC_NODE><ARG_OF_PERICENTER>176.6706</ARG_OF_PERICENTER><MEAN_ANOMALY>331.0720</MEAN_ANOMALY></meanElements><tleParameters><EPHEMERIS_TYPE>0</EPHEMERIS_TYPE><CLASSIFICATION_TYPE>U</CLASSIFICATION_TYPE><NORAD_CAT_ID>61603</NORAD_CAT_ID><ELEMENT_SET_NO>999</ELEMENT_SET_NO><REV_AT_EPOCH>562</REV_AT_EPOCH><BSTAR>-.32088E+0</BSTAR><MEAN_MOTION_DOT>-.75189E-2</MEAN_MOTION_DOT><MEAN_MOTION_DDOT>0</MEAN_MOTION_DDOT></tleParameters></data></segment></body></omm>
<omm id="CCSDS_OMM_VERS" version="2.0">
<header><CREATION_DATE/><ORIGINATOR/></header><body><segment><metadata><OBJECT_NAME>ONEWEB-0698</OBJECT_NAME><OBJECT_ID>2024-188L</OBJECT_ID><CENTER_NAME>EARTH</CENTER_NAME><REF_FRAME>TEME</REF_FRAME><TIME_SYSTEM>UTC</TIME_SYSTEM><MEAN_ELEMENT_THEORY>SGP4</MEAN_ELEMENT_THEORY></metadata><data><meanElements><EPOCH>2025-02-08T14:00:01.000224</EPOCH><MEAN_MOTION>14.30406562</MEAN_MOTION><ECCENTRICITY>.0004422</ECCENTRICITY><INCLINATION>86.9390</INCLINATION><RA_OF_ASC_NODE>124.0293</RA_OF_ASC_NODE><ARG_OF_PERICENTER>174.3954</ARG_OF_PERICENTER><MEAN_ANOMALY>213.6464</MEAN_ANOMALY></meanElements><tleParameters><EPHEMERIS_TYPE>0</EPHEMERIS_TYPE><CLASSIFICATION_TYPE>U</CLASSIFICATION_TYPE><NORAD_CAT_ID>61604</NORAD_CAT_ID><ELEMENT_SET_NO>999</ELEMENT_SET_NO><REV_AT_EPOCH>563</REV_AT_EPOCH><BSTAR>-.30743E+0</BSTAR><MEAN_MOTION_DOT>-.754067E-2</MEAN_MOTION_DOT><MEAN_MOTION_DDOT>0</MEAN_MOTION_DDOT></tleParameters></data></segment></body></omm>
<omm id="CCSDS_OMM_VERS" version="2.0">
<header><CREATION_DATE/><ORIGINATOR/></header><body><segment><metadata><OBJECT_NAME>ONEWEB-0699</OBJECT_NAME><OBJECT_ID>2024-188M</OBJECT_ID><CENTER_NAME>EARTH</CENTER_NAME><REF_FRAME>TEME</REF_FRAME><TIME_SYSTEM>UTC</TIME_SYSTEM><MEAN_ELEMENT_THEORY>SGP4</MEAN_ELEMENT_THEORY></metadata><data><meanElements><EPOCH>2025-02-08T11:50:27.828960</EPOCH><MEAN_MOTION>13.23021217</MEAN_MOTION><ECCENTRICITY>.0000775</ECCENTRICITY><INCLINATION>87.9415</INCLINATION><RA_OF_ASC_NODE>134.6508</RA_OF_ASC_NODE><ARG_OF_PERICENTER>84.3632</ARG_OF_PERICENTER><MEAN_ANOMALY>275.7591</MEAN_ANOMALY></meanElements><tleParameters><EPHEMERIS_TYPE>0</EPHEMERIS_TYPE><CLASSIFICATION_TYPE>U</CLASSIFICATION_TYPE><NORAD_CAT_ID>61605</NORAD_CAT_ID><ELEMENT_SET_NO>999</ELEMENT_SET_NO><REV_AT_EPOCH>1864</REV_AT_EPOCH><BSTAR>.15484E-3</BSTAR><MEAN_MOTION_DOT>.78E-6</MEAN_MOTION_DOT><MEAN_MOTION_DDOT>0</MEAN_MOTION_DDOT></tleParameters></data></segment></body></omm>
<omm id="CCSDS_OMM_VERS" version="2.0">
<header><CREATION_DATE/><ORIGINATOR/></header><body><segment><metadata><OBJECT_NAME>ONEWEB-0700</OBJECT_NAME><OBJECT_ID>2024-188N</OBJECT_ID><CENTER_NAME>EARTH</CENTER_NAME><REF_FRAME>TEME</REF_FRAME><TIME_SYSTEM>UTC</TIME_SYSTEM><MEAN_ELEMENT_THEORY>SGP4</MEAN_ELEMENT_THEORY></metadata><data><meanElements><EPOCH>2025-02-08T07:06:21.164256</EPOCH><MEAN_MOTION>13.22795333</MEAN_MOTION><ECCENTRICITY>.0001984</ECCENTRICITY><INCLINATION>87.9418</INCLINATION><RA_OF_ASC_NODE>134.7008</RA_OF_ASC_NODE><ARG_OF_PERICENTER>35.4198</ARG_OF_PERICENTER><MEAN_ANOMALY>324.7068</MEAN_ANOMALY></meanElements><tleParameters><EPHEMERIS_TYPE>0</EPHEMERIS_TYPE><CLASSIFICATION_TYPE>U</CLASSIFICATION_TYPE><NORAD_CAT_ID>61606</NORAD_CAT_ID><ELEMENT_SET_NO>999</ELEMENT_SET_NO><REV_AT_EPOCH>1861</REV_AT_EPOCH><BSTAR>-.57473E-1</BSTAR><MEAN_MOTION_DOT>-.24004E-3</MEAN_MOTION_DOT><MEAN_MOTION_DDOT>0</MEAN_MOTION_DDOT></tleParameters></data></segment></body></omm>
<omm id="CCSDS_OMM_VERS" version="2.0">
<header><CREATION_DATE/><ORIGINATOR/></header><body><segment><metadata><OBJECT_NAME>ONEWEB-0701</OBJECT_NAME><OBJECT_ID>2024-188P</OBJECT_ID><CENTER_NAME>EARTH</CENTER_NAME><REF_FRAME>TEME</REF_FRAME><TIME_SYSTEM>UTC</TIME_SYSTEM><MEAN_ELEMENT_THEORY>SGP4</MEAN_ELEMENT_THEORY></metadata><data><meanElements><EPOCH>2025-02-08T12:24:20.528064</EPOCH><MEAN_MOTION>13.22921429</MEAN_MOTION><ECCENTRICITY>.0001097</ECCENTRICITY><INCLINATION>87.9427</INCLINATION><RA_OF_ASC_NODE>134.6505</RA_OF_ASC_NODE><ARG_OF_PERICENTER>62.8311</ARG_OF_PERICENTER><MEAN_ANOMALY>297.2935</MEAN_ANOMALY></meanElements><tleParameters><EPHEMERIS_TYPE>0</EPHEMERIS_TYPE><CLASSIFICATION_TYPE>U</CLASSIFICATION_TYPE><NORAD_CAT_ID>61607</NORAD_CAT_ID><ELEMENT_SET_NO>999</ELEMENT_SET_NO><REV_AT_EPOCH>1864</REV_AT_EPOCH><BSTAR>.2123E-3</BSTAR><MEAN_MOTION_DOT>.102E-5</MEAN_MOTION_DOT><MEAN_MOTION_DDOT>0</MEAN_MOTION_DDOT></tleParameters></data></segment></body></omm>
<omm id="CCSDS_OMM_VERS" version="2.0">
<header><CREATION_DATE/><ORIGINATOR/></header><body><segment><metadata><OBJECT_NAME>ONEWEB-0702</OBJECT_NAME><OBJECT_ID>2024-188Q</OBJECT_ID><CENTER_NAME>EARTH</CENTER_NAME><REF_FRAME>TEME</REF_FRAME><TIME_SYSTEM>UTC</TIME_SYSTEM><MEAN_ELEMENT_THEORY>SGP4</MEAN_ELEMENT_THEORY></metadata><data><meanElements><EPOCH>2025-02-08T14:00:01.000224</EPOCH><MEAN_MOTION>14.31317689</MEAN_MOTION><ECCENTRICITY>.000557</ECCENTRICITY><INCLINATION>86.9375</INCLINATION><RA_OF_ASC_NODE>124.0460</RA_OF_ASC_NODE><ARG_OF_PERICENTER>170.6753</ARG_OF_PERICENTER><MEAN_ANOMALY>265.2141</MEAN_ANOMALY></meanElements><tleParameters><EPHEMERIS_TYPE>0</EPHEMERIS_TYPE><CLASSIFICATION_TYPE>U</CLASSIFICATION_TYPE><NORAD_CAT_ID>61608</NORAD_CAT_ID><ELEMENT_SET_NO>999</ELEMENT_SET_NO><REV_AT_EPOCH>573</REV_AT_EPOCH><BSTAR>-.27776E+0</BSTAR><MEAN_MOTION_DOT>-.696568E-2</MEAN_MOTION_DOT><MEAN_MOTION_DDOT>0</MEAN_MOTION_DDOT></tleParameters></data></segment></body></omm>
<omm id="CCSDS_OMM_VERS" version="2.0">
<header><CREATION_DATE/><ORIGINATOR/></header><body><segment><metadata><OBJECT_NAME>ONEWEB-0704</OBJECT_NAME><OBJECT_ID>2024-188R</OBJECT_ID><CENTER_NAME>EARTH</CENTER_NAME><REF_FRAME>TEME</REF_FRAME><TIME_SYSTEM>UTC</TIME_SYSTEM><MEAN_ELEMENT_THEORY>SGP4</MEAN_ELEMENT_THEORY></metadata><data><meanElements><EPOCH>2025-02-08T06:15:38.319552</EPOCH><MEAN_MOTION>13.23304585</MEAN_MOTION><ECCENTRICITY>.0001031</ECCENTRICITY><INCLINATION>87.8801</INCLINATION><RA_OF_ASC_NODE>134.6194</RA_OF_ASC_NODE><ARG_OF_PERICENTER>93.6075</ARG_OF_PERICENTER><MEAN_ANOMALY>266.5178</MEAN_ANOMALY></meanElements><tleParameters><EPHEMERIS_TYPE>0</EPHEMERIS_TYPE><CLASSIFICATION_TYPE>U</CLASSIFICATION_TYPE><NORAD_CAT_ID>61609</NORAD_CAT_ID><ELEMENT_SET_NO>999</ELEMENT_SET_NO><REV_AT_EPOCH>1859</REV_AT_EPOCH><BSTAR>-.50459E-2</BSTAR><MEAN_MOTION_DOT>-.2117E-4</MEAN_MOTION_DOT><MEAN_MOTION_DDOT>0</MEAN_MOTION_DDOT></tleParameters></data></segment></body></omm>
<omm id="CCSDS_OMM_VERS" version="2.0">
<header><CREATION_DATE/><ORIGINATOR/></header><body><segment><metadata><OBJECT_NAME>ONEWEB-0705</OBJECT_NAME><OBJECT_ID>2024-188S</OBJECT_ID><CENTER_NAME>EARTH</CENTER_NAME><REF_FRAME>TEME</REF_FRAME><TIME_SYSTEM>UTC</TIME_SYSTEM><MEAN_ELEMENT_THEORY>SGP4</MEAN_ELEMENT_THEORY></metadata><data><meanElements><EPOCH>2025-02-08T12:02:00.872736</EPOCH><MEAN_MOTION>13.23260093</MEAN_MOTION><ECCENTRICITY>.000264</ECCENTRICITY><INCLINATION>87.9458</INCLINATION><RA_OF_ASC_NODE>134.6613</RA_OF_ASC_NODE><ARG_OF_PERICENTER>103.5967</ARG_OF_PERICENTER><MEAN_ANOMALY>256.5462</MEAN_ANOMALY></meanElements><tleParameters><EPHEMERIS_TYPE>0</EPHEMERIS_TYPE><CLASSIFICATION_TYPE>U</CLASSIFICATION_TYPE><NORAD_CAT_ID>61610</NORAD_CAT_ID><ELEMENT_SET_NO>999</ELEMENT_SET_NO><REV_AT_EPOCH>1079</REV_AT_EPOCH><BSTAR>.23395E-3</BSTAR><MEAN_MOTION_DOT>.112E-5</MEAN_MOTION_DOT><MEAN_MOTION_DDOT>0</MEAN_MOTION_DDOT></tleParameters></data></segment></body></omm>

</ndm>
