ONEWEB-0697             
1 61603U 24188K   25039.58334491 -.00751890  00000+0 -32088+0 0  9996
2 61603  86.9254 124.0098 0001105 176.6706 331.0720 14.28044596  5628
ONEWEB-0698             
1 61604U 24188L   25039.58334491 -.00754067  00000+0 -30743+0 0  9992
2 61604  86.9390 124.0293 0004422 174.3954 213.6464 14.30406562  5631
ONEWEB-0699             
1 61605U 24188M   25039.49337765  .00000078  00000+0  15484-3 0  9993
2 61605  87.9415 134.6508 0000775  84.3632 275.7591 13.23021217 18643
ONEWEB-0700             
1 61606U 24188N   25039.29607829 -.00024004  00000+0 -57473-1 0  9992
2 61606  87.9418 134.7008 0001984  35.4198 324.7068 13.22795333 18617
ONEWEB-0701             
1 61607U 24188P   25039.51690426  .00000102  00000+0  21230-3 0  9998
2 61607  87.9427 134.6505 0001097  62.8311 297.2935 13.22921429 18642
ONEWEB-0702             
1 61608U 24188Q   25039.58334491 -.00696568  00000+0 -27776+0 0  9999
2 61608  86.9375 124.0460 0005570 170.6753 265.2141 14.31317689  5733
ONEWEB-0704             
1 61609U 24188R   25039.26086018 -.00002117  00000+0 -50459-2 0  9992
2 61609  87.8801 134.6194 0001031  93.6075 266.5178 13.23304585 18591
ONEWEB-0705             
1 61610U 24188S   25039.50139899  .00000112  00000+0  23395-3 0  9998
2 61610  87.9458 134.6613 0002640 103.5967 256.5462 13.23260093 10790
